CCSDS_OMM_VERS = 2.0
CREATION_DATE  = 
ORIGINATOR     = 

OBJECT_NAME    = SOYUZ-MS 28
OBJECT_ID      = 2025-275A
CENTER_NAME    = EARTH
REF_FRAME      = TEME
TIME_SYSTEM    = UTC
MEAN_ELEMENT_THEORY = SGP/SGP4

EPOCH          = 2025-12-24T17:30:08.449344
MEAN_MOTION    = 15.49788781
ECCENTRICITY   = .0003193
INCLINATION    = 51.6316
RA_OF_ASC_NODE = 83.1022
ARG_OF_PERICENTER = 296.2044
MEAN_ANOMALY   = 63.8616

EPHEMERIS_TYPE = 0
CLASSIFICATION_TYPE = U
NORAD_CAT_ID   = 66664
ELEMENT_SET_NO = 999
REV_AT_EPOCH   = 430
BSTAR          = .24881E-3
MEAN_MOTION_DOT = .13665E-3
MEAN_MOTION_DDOT = 0

CCSDS_OMM_VERS = 2.0
CREATION_DATE  = 
ORIGINATOR     = 

OBJECT_NAME    = 1998-067XS
OBJECT_ID      = 1998-067XS
CENTER_NAME    = EARTH
REF_FRAME      = TEME
TIME_SYSTEM    = UTC
MEAN_ELEMENT_THEORY = SGP/SGP4

EPOCH          = 2025-12-24T12:30:34.892352
MEAN_MOTION    = 15.51195693
ECCENTRICITY   = .00027903
INCLINATION    = 51.6318
RA_OF_ASC_NODE = 83.9644
ARG_OF_PERICENTER = 262.1551
MEAN_ANOMALY   = 97.9122

EPHEMERIS_TYPE = 0
CLASSIFICATION_TYPE = U
NORAD_CAT_ID   = 66906
ELEMENT_SET_NO = 999
REV_AT_EPOCH   = 344
BSTAR          = .51725581E-3
MEAN_MOTION_DOT = .30459E-3
MEAN_MOTION_DDOT = 0

CCSDS_OMM_VERS = 2.0
CREATION_DATE  = 
ORIGINATOR     = 

OBJECT_NAME    = 1998-067XT
OBJECT_ID      = 1998-067XT
CENTER_NAME    = EARTH
REF_FRAME      = TEME
TIME_SYSTEM    = UTC
MEAN_ELEMENT_THEORY = SGP/SGP4

EPOCH          = 2025-12-24T10:39:56.166048
MEAN_MOTION    = 15.52879993
ECCENTRICITY   = .00038856
INCLINATION    = 51.6313
RA_OF_ASC_NODE = 84.2012
ARG_OF_PERICENTER = 298.2919
MEAN_ANOMALY   = 61.7678

EPHEMERIS_TYPE = 0
CLASSIFICATION_TYPE = U
NORAD_CAT_ID   = 66907
ELEMENT_SET_NO = 999
REV_AT_EPOCH   = 343
BSTAR          = .10726177E-2
MEAN_MOTION_DOT = .67981E-3
MEAN_MOTION_DDOT = 0

CCSDS_OMM_VERS = 2.0
CREATION_DATE  = 
ORIGINATOR     = 

OBJECT_NAME    = 1998-067XU
OBJECT_ID      = 1998-067XU
CENTER_NAME    = EARTH
REF_FRAME      = TEME
TIME_SYSTEM    = UTC
MEAN_ELEMENT_THEORY = SGP/SGP4

EPOCH          = 2025-12-24T10:38:25.805472
MEAN_MOTION    = 15.52977314
ECCENTRICITY   = .00038638
INCLINATION    = 51.6323
RA_OF_ASC_NODE = 84.1936
ARG_OF_PERICENTER = 296.7785
MEAN_ANOMALY   = 63.2809

EPHEMERIS_TYPE = 0
CLASSIFICATION_TYPE = U
NORAD_CAT_ID   = 66908
ELEMENT_SET_NO = 999
REV_AT_EPOCH   = 343
BSTAR          = .10585814E-2
MEAN_MOTION_DOT = .67317E-3
MEAN_MOTION_DDOT = 0

CCSDS_OMM_VERS = 2.0
CREATION_DATE  = 
ORIGINATOR     = 

OBJECT_NAME    = SILVERSAT
OBJECT_ID      = 1998-067XV
CENTER_NAME    = EARTH
REF_FRAME      = TEME
TIME_SYSTEM    = UTC
MEAN_ELEMENT_THEORY = SGP/SGP4

EPOCH          = 2025-12-24T12:08:54.950784
MEAN_MOTION    = 15.53202951
ECCENTRICITY   = .00038249
INCLINATION    = 51.6310
RA_OF_ASC_NODE = 83.8633
ARG_OF_PERICENTER = 300.8028
MEAN_ANOMALY   = 59.2585

EPHEMERIS_TYPE = 0
CLASSIFICATION_TYPE = U
NORAD_CAT_ID   = 66909
ELEMENT_SET_NO = 999
REV_AT_EPOCH   = 344
BSTAR          = .11617624E-2
MEAN_MOTION_DOT = .74602E-3
MEAN_MOTION_DDOT = 0

CCSDS_OMM_VERS = 2.0
CREATION_DATE  = 
ORIGINATOR     = 

OBJECT_NAME    = 1998-067XW
OBJECT_ID      = 1998-067XW
CENTER_NAME    = EARTH
REF_FRAME      = TEME
TIME_SYSTEM    = UTC
MEAN_ELEMENT_THEORY = SGP/SGP4

EPOCH          = 2025-12-24T15:11:47.467392
MEAN_MOTION    = 15.53149596
ECCENTRICITY   = .00038741
INCLINATION    = 51.6312
RA_OF_ASC_NODE = 83.2108
ARG_OF_PERICENTER = 273.1727
MEAN_ANOMALY   = 86.8820

EPHEMERIS_TYPE = 0
CLASSIFICATION_TYPE = U
NORAD_CAT_ID   = 66910
ELEMENT_SET_NO = 999
REV_AT_EPOCH   = 346
BSTAR          = .10215807E-2
MEAN_MOTION_DOT = .65339E-3
MEAN_MOTION_DDOT = 0

CCSDS_OMM_VERS = 2.0
CREATION_DATE  = 
ORIGINATOR     = 

OBJECT_NAME    = 1998-067XX
OBJECT_ID      = 1998-067XX
CENTER_NAME    = EARTH
REF_FRAME      = TEME
TIME_SYSTEM    = UTC
MEAN_ELEMENT_THEORY = SGP/SGP4

EPOCH          = 2025-12-24T22:49:37.454880
MEAN_MOTION    = 15.53703475
ECCENTRICITY   = .0003529
INCLINATION    = 51.6305
RA_OF_ASC_NODE = 81.5850
ARG_OF_PERICENTER = 283.5602
MEAN_ANOMALY   = 76.4995

EPHEMERIS_TYPE = 0
CLASSIFICATION_TYPE = U
NORAD_CAT_ID   = 66911
ELEMENT_SET_NO = 999
REV_AT_EPOCH   = 350
BSTAR          = .11925E-2
MEAN_MOTION_DOT = .78033E-3
MEAN_MOTION_DDOT = 0

CCSDS_OMM_VERS = 2.0
CREATION_DATE  = 
ORIGINATOR     = 

OBJECT_NAME    = 1998-067XY
OBJECT_ID      = 1998-067XY
CENTER_NAME    = EARTH
REF_FRAME      = TEME
TIME_SYSTEM    = UTC
MEAN_ELEMENT_THEORY = SGP/SGP4

EPOCH          = 2025-12-24T12:19:04.376640
MEAN_MOTION    = 15.52269671
ECCENTRICITY   = .00038943
INCLINATION    = 51.6319
RA_OF_ASC_NODE = 83.9109
ARG_OF_PERICENTER = 289.4763
MEAN_ANOMALY   = 70.5806

EPHEMERIS_TYPE = 0
CLASSIFICATION_TYPE = U
NORAD_CAT_ID   = 66912
ELEMENT_SET_NO = 999
REV_AT_EPOCH   = 343
BSTAR          = .87040154E-3
MEAN_MOTION_DOT = .53773E-3
MEAN_MOTION_DDOT = 0

