SOYUZ-MS 28             
1 66664U 25275A   25358.72926446  .00013665  00000+0  24881-3 0  9998
2 66664  51.6316  83.1022 0003193 296.2044  63.8616 15.49788781  4306
1998-067XS              
1 66906U 98067XS  25358.52123718  .00030459  00000+0  51726-3 0  9993
2 66906  51.6318  83.9644 0002790 262.1551  97.9122 15.51195693  3443
1998-067XT              
1 66907U 98067XT  25358.44440007  .00067981  00000+0  10726-2 0  9992
2 66907  51.6313  84.2012 0003885 298.2919  61.7678 15.52879993  3433
1998-067XU              
1 66908U 98067XU  25358.44335423  .00067317  00000+0  10586-2 0  9995
2 66908  51.6323  84.1936 0003863 296.7785  63.2809 15.52977314  3438
SILVERSAT               
1 66909U 98067XV  25358.50619156  .00074602  00000+0  11618-2 0  9993
2 66909  51.6310  83.8633 0003824 300.8028  59.2585 15.53202951  3445
1998-067XW              
1 66910U 98067XW  25358.63318828  .00065339  00000+0  10216-2 0  9991
2 66910  51.6312  83.2108 0003874 273.1727  86.8820 15.53149596  3468
1998-067XX              
1 66911U 98067XX  25358.95112795  .00078033  00000+0  11925-2 0  9995
2 66911  51.6305  81.5850 0003529 283.5602  76.4995 15.53703475  3505
1998-067XY              
1 66912U 98067XY  25358.51324510  .00053773  00000+0  87040-3 0  9994
2 66912  51.6319  83.9109 0003894 289.4763  70.5806 15.52269671  3434
